{"fetched_at":"2026-06-14T03:48:42Z","count":16735,"tles":[{"name":"GSAT0226 (GALILEO 31)","line1":"1 61183U 24167B   26164.57146690  .00000062  00000+0  00000+0 0  9992","line2":"2 61183  55.1847 221.4204 0002940 226.4418 134.5375  1.70474141 10792","category":"GPS"},{"name":"GSAT0225 (GALILEO 29)","line1":"1 59598U 24079A   26160.48196544  .00000021  00000+0  00000+0 0  9995","line2":"2 59598  55.1155 101.2960 0001734 292.0981 244.7042  1.70474016 13181","category":"GPS"},{"name":"COSMOS 2584 [GLONASS-K2]","line1":"1 63130U 25042A   26159.22437978 -.00000015  00000+0  00000+0 0  9996","line2":"2 63130  65.0792  73.1067 0005828 228.4476 131.5246  2.13103875  9858","category":"GPS"},{"name":"GSAT0234 (GALILEO 34)","line1":"1 67162U 25302C   26164.45298131 -.00000006  00000+0  00000+0 0  9991","line2":"2 67162  54.3351 102.2367 0003057 308.5206 256.3467  1.70473927  3113","category":"GPS"},{"name":"NAVSTAR 85 (USA 581)","line1":"1 67588U 26017A   26164.20879687 -.00000028  00000+0  00000+0 0  9995","line2":"2 67588  55.0859  88.9150 0022147 258.0590 101.6773  2.00571123431536","category":"GPS"},{"name":"BEIDOU-3 M28","line1":"1 58654U 23207A   26164.00359830 -.00000057  00000+0  00000+0 0  9990","line2":"2 58654  55.7492  62.4443 0003374 346.0621  13.9544  1.86229633 16760","category":"GPS"},{"name":"GSAT0232 (GALILEO 32)","line1":"1 61182U 24167A   26164.15785588  .00000062  00000+0  00000+0 0  9990","line2":"2 61182  55.1859 221.4246 0006161 225.9624 149.8375  1.70474201 10811","category":"GPS"},{"name":"BEIDOU-3 M25","line1":"1 61186U 24168B   26163.83690193 -.00000069  00000+0  00000+0 0  9994","line2":"2 61186  54.4778 302.3939 0003000 301.8949 199.4569  1.86229830 11706","category":"GPS"},{"name":"GSAT0227 (GALILEO 30)","line1":"1 59600U 24079C   26159.20410498  .00000025  00000+0  00000+0 0  9998","line2":"2 59600  55.1096 101.3297 0001920  44.5115 315.4782  1.70474042 13219","category":"GPS"},{"name":"NAVSTAR 86 (USA 585)","line1":"1 68791U 26087A   26158.43909353  .00000057  00000+0  00000+0 0  9992","line2":"2 68791  54.9638 208.1735 0020931 107.2972 251.8874  2.00569573   638","category":"GPS"},{"name":"GSAT0233 (GALILEO 33)","line1":"1 67160U 25302A   26161.18955800  .00000019  00000+0  00000+0 0  9992","line2":"2 67160  54.3297 102.3310 0001084 234.5697 307.3496  1.70474067  3002","category":"GPS"},{"name":"BEIDOU-3 M26","line1":"1 58655U 23207B   26161.11630189 -.00000052  00000+0  00000+0 0  9994","line2":"2 58655  55.7488  62.5282 0003349 318.7202  41.2779  1.86229681 16690","category":"GPS"},{"name":"NAVSTAR 84 (USA 545)","line1":"1 64202U 25116A   26163.38956388 -.00000065  00000+0  00000+0 0  9997","line2":"2 64202  55.2312  31.3239 0008563 338.8161 228.7168  2.00576015  7778","category":"GPS"}]}